GLOBALSTAR M094         
1 39074U 13005C   25141.80828555 -.00000101  00000+0  12937-4 0  9994
2 39074  51.9961 262.4312 0000741 149.0642 211.0268 12.62270874569069
GLOBALSTAR M096         
1 39075U 13005D   25142.13829378 -.00000093  00000+0  60245-4 0  9991
2 39075  52.0085 309.9214 0000922 125.9531 234.1421 12.62271383568352
GLOBALSTAR M078         
1 39076U 13005E   25141.39903746 -.00000055  00000+0  27203-3 0  9995
2 39076  51.9894  36.7157 0001456 100.8769 259.2262 12.62263475566530
GLOBALSTAR M095         
1 39077U 13005F   25141.82134888 -.00000097  00000+0  36381-4 0  9991
2 39077  51.9821  32.6391 0000958 107.4354 252.6618 12.62269731566808
GLOBALSTAR M087         
1 52888U 22064A   25142.16876116 -.00000085  00000+0  10572-3 0  9996
2 52888  51.9964 173.0114 0000254 139.7530 220.3356 12.62263286142087
